ORBCOMM FM115           
1 41186U 15081H   23306.43627879  .00001205  00000+0  28382-3 0  9998
2 41186  47.0003 332.9319 0001498 255.9031 104.1689 14.60053166421089
ORBCOMM FM108           
1 41187U 15081J   23306.49922772  .00001696  00000+0  41923-3 0  9995
2 41187  47.0058  20.9848 0001647 138.9997 221.1012 14.56008237420441
ORBCOMM FM117           
1 41188U 15081K   23305.91605655  .00001532  00000+0  38227-3 0  9992
2 41188  47.0025  22.6875 0002442 146.6026 213.5013 14.56017518420323
ORBCOMM FM116           
1 41189U 15081L   23305.83711787  .00000713  00000+0  19813-3 0  9998
2 41189  47.0008 112.8665 0002619 220.2344 139.8347 14.56001875419127
